{
  "type": "FeatureCollection",
  "features": [
    {
      "type": "Feature",
      "properties": {
        "norad_id": 30243,
        "name": "FENGYUN 1C DEB",
        "group": "fengyun-1c-debris",
        "lat": -73.87569508044218,
        "lon": 20.47876698047965,
        "alt_km": 863.2957847458883,
        "timestamp": "2025-12-02T19:35:50.830726+00:00",
        "meta_object_name": "FENGYUN 1C DEB",
        "meta_object_id": "1999-025XC",
        "meta_epoch": "2025-12-02T12:11:04.865280",
        "meta_mean_motion": 14.12998703,
        "meta_eccentricity": 0.0012793,
        "meta_inclination": 98.6938,
        "meta_ra_of_asc_node": 348.2231,
        "meta_arg_of_pericenter": 146.408,
        "meta_mean_anomaly": 6.8983,
        "meta_ephemeris_type": 0,
        "meta_classification_type": "U",
        "meta_norad_cat_id": 30243,
        "meta_element_set_no": 999,
        "meta_rev_at_epoch": 97134,
        "meta_bstar": 0.00048748,
        "meta_mean_motion_dot": 8.67e-06,
        "meta_mean_motion_ddot": 0,
        "tle_line1": "1 30243U 99025XC  25336.50769520  .00000867  00000+0  48748-3 0  9994",
        "tle_line2": "2 30243  98.6938 348.2231 0012793 146.4080   6.8983 14.12998703971347"
      },
      "geometry": {
        "type": "Point",
        "coordinates": [
          20.47876698047965,
          -73.87569508044218
        ]
      }
    },
    {
      "type": "Feature",
      "properties": {
        "norad_id": 30244,
        "name": "FENGYUN 1C DEB",
        "group": "fengyun-1c-debris",
        "lat": 46.295769582533005,
        "lon": -143.47715826043168,
        "alt_km": 835.0746654907298,
        "timestamp": "2025-12-02T19:35:50.830736+00:00",
        "meta_object_name": "FENGYUN 1C DEB",
        "meta_object_id": "1999-025XD",
        "meta_epoch": "2025-12-02T11:43:51.098304",
        "meta_mean_motion": 14.14990131,
        "meta_eccentricity": 0.0010023,
        "meta_inclination": 99.1434,
        "meta_ra_of_asc_node": 225.8882,
        "meta_arg_of_pericenter": 343.9292,
        "meta_mean_anomaly": 194.3664,
        "meta_ephemeris_type": 0,
        "meta_classification_type": "U",
        "meta_norad_cat_id": 30244,
        "meta_element_set_no": 999,
        "meta_rev_at_epoch": 97201,
        "meta_bstar": 0.00053743,
        "meta_mean_motion_dot": 9.94e-06,
        "meta_mean_motion_ddot": 0,
        "tle_line1": "1 30244U 99025XD  25336.48878586  .00000994  00000+0  53743-3 0  9997",
        "tle_line2": "2 30244  99.1434 225.8882 0010023 343.9292 194.3664 14.14990131972013"
      },
      "geometry": {
        "type": "Point",
        "coordinates": [
          -143.47715826043168,
          46.295769582533005
        ]
      }
    },
    {
      "type": "Feature",
      "properties": {
        "norad_id": 30245,
        "name": "FENGYUN 1C DEB",
        "group": "fengyun-1c-debris",
        "lat": 31.97875368157231,
        "lon": -40.582147117448905,
        "alt_km": 1022.7756475919105,
        "timestamp": "2025-12-02T19:35:50.830747+00:00",
        "meta_object_name": "FENGYUN 1C DEB",
        "meta_object_id": "1999-025XE",
        "meta_epoch": "2025-12-02T10:44:00.570048",
        "meta_mean_motion": 13.79024137,
        "meta_eccentricity": 0.0193495,
        "meta_inclination": 98.8883,
        "meta_ra_of_asc_node": 324.678,
        "meta_arg_of_pericenter": 278.6794,
        "meta_mean_anomaly": 79.2485,
        "meta_ephemeris_type": 0,
        "meta_classification_type": "U",
        "meta_norad_cat_id": 30245,
        "meta_element_set_no": 999,
        "meta_rev_at_epoch": 94552,
        "meta_bstar": 0.0015562,
        "meta_mean_motion_dot": 1.786e-05,
        "meta_mean_motion_ddot": 0,
        "tle_line1": "1 30245U 99025XE  25336.44722882  .00001786  00000+0  15562-2 0  9997",
        "tle_line2": "2 30245  98.8883 324.6780 0193495 278.6794  79.2485 13.79024137945521"
      },
      "geometry": {
        "type": "Point",
        "coordinates": [
          -40.582147117448905,
          31.97875368157231
        ]
      }
    },
    {
      "type": "Feature",
      "properties": {
        "norad_id": 30246,
        "name": "FENGYUN 1C DEB",
        "group": "fengyun-1c-debris",
        "lat": -12.121367028724757,
        "lon": -59.94060452368861,
        "alt_km": 1009.8182533461677,
        "timestamp": "2025-12-02T19:35:50.830758+00:00",
        "meta_object_name": "FENGYUN 1C DEB",
        "meta_object_id": "1999-025XF",
        "meta_epoch": "2025-12-02T09:48:33.409728",
        "meta_mean_motion": 13.37011413,
        "meta_eccentricity": 0.0370747,
        "meta_inclination": 98.6727,
        "meta_ra_of_asc_node": 121.5896,
        "meta_arg_of_pericenter": 125.6223,
        "meta_mean_anomaly": 260.6329,
        "meta_ephemeris_type": 0,
        "meta_classification_type": "U",
        "meta_norad_cat_id": 30246,
        "meta_element_set_no": 999,
        "meta_rev_at_epoch": 92002,
        "meta_bstar": 0.00038594,
        "meta_mean_motion_dot": 2.66e-06,
        "meta_mean_motion_ddot": 0,
        "tle_line1": "1 30246U 99025XF  25336.40872002  .00000266  00000+0  38594-3 0  9997",
        "tle_line2": "2 30246  98.6727 121.5896 0370747 125.6223 260.6329 13.37011413920022"
      },
      "geometry": {
        "type": "Point",
        "coordinates": [
          -59.94060452368861,
          -12.121367028724757
        ]
      }
    },
    {
      "type": "Feature",
      "properties": {
        "norad_id": 30247,
        "name": "FENGYUN 1C DEB",
        "group": "fengyun-1c-debris",
        "lat": -45.643227363003234,
        "lon": 55.435848051653515,
        "alt_km": 831.7304868220936,
        "timestamp": "2025-12-02T19:35:50.830769+00:00",
        "meta_object_name": "FENGYUN 1C DEB",
        "meta_object_id": "1999-025XG",
        "meta_epoch": "2025-12-02T07:36:41.278752",
        "meta_mean_motion": 14.58494716,
        "meta_eccentricity": 0.0196547,
        "meta_inclination": 98.2766,
        "meta_ra_of_asc_node": 243.4996,
        "meta_arg_of_pericenter": 24.1528,
        "meta_mean_anomaly": 102.2408,
        "meta_ephemeris_type": 0,
        "meta_classification_type": "U",
        "meta_norad_cat_id": 30247,
        "meta_element_set_no": 999,
        "meta_rev_at_epoch": 97130,
        "meta_bstar": 0.004026,
        "meta_mean_motion_dot": 0.0002447,
        "meta_mean_motion_ddot": 0,
        "tle_line1": "1 30247U 99025XG  25336.31714443  .00024470  00000+0  40260-2 0  9997",
        "tle_line2": "2 30247  98.2766 243.4996 0196547  24.1528 102.2408 14.58494716971303"
      },
      "geometry": {
        "type": "Point",
        "coordinates": [
          55.435848051653515,
          -45.643227363003234
        ]
      }
    },
    {
      "type": "Feature",
      "properties": {
        "norad_id": 30248,
        "name": "FENGYUN 1C DEB",
        "group": "fengyun-1c-debris",
        "lat": -76.67375501391201,
        "lon": -62.59101458577801,
        "alt_km": 700.4565978554219,
        "timestamp": "2025-12-02T19:35:50.830780+00:00",
        "meta_object_name": "FENGYUN 1C DEB",
        "meta_object_id": "1999-025XH",
        "meta_epoch": "2025-12-01T11:07:37.449696",
        "meta_mean_motion": 14.58506148,
        "meta_eccentricity": 0.00296519,
        "meta_inclination": 99.1012,
        "meta_ra_of_asc_node": 158.5179,
        "meta_arg_of_pericenter": 186.8758,
        "meta_mean_anomaly": 173.2036,
        "meta_ephemeris_type": 0,
        "meta_classification_type": "U",
        "meta_norad_cat_id": 30248,
        "meta_element_set_no": 999,
        "meta_rev_at_epoch": 97264,
        "meta_bstar": 0.0051294796,
        "meta_mean_motion_dot": 0.00023998,
        "meta_mean_motion_ddot": 0,
        "tle_line1": "1 30248U 99025XH  25335.46362789  .00023998  00000+0  51295-2 0  9999",
        "tle_line2": "2 30248  99.1012 158.5179 0029651 186.8758 173.2036 14.58506148972645"
      },
      "geometry": {
        "type": "Point",
        "coordinates": [
          -62.59101458577801,
          -76.67375501391201
        ]
      }
    },
    {
      "type": "Feature",
      "properties": {
        "norad_id": 30249,
        "name": "FENGYUN 1C DEB",
        "group": "fengyun-1c-debris",
        "lat": 19.235698879947392,
        "lon": 137.32747293322436,
        "alt_km": 691.609887954588,
        "timestamp": "2025-12-02T19:35:50.830791+00:00",
        "meta_object_name": "FENGYUN 1C DEB",
        "meta_object_id": "1999-025XJ",
        "meta_epoch": "2025-12-02T09:45:29.928096",
        "meta_mean_motion": 14.57132403,
        "meta_eccentricity": 0.0026322,
        "meta_inclination": 98.9591,
        "meta_ra_of_asc_node": 140.0424,
        "meta_arg_of_pericenter": 75.009,
        "meta_mean_anomaly": 315.5213,
        "meta_ephemeris_type": 0,
        "meta_classification_type": "U",
        "meta_norad_cat_id": 30249,
        "meta_element_set_no": 999,
        "meta_rev_at_epoch": 97413,
        "meta_bstar": 0.004213,
        "meta_mean_motion_dot": 0.00019083,
        "meta_mean_motion_ddot": 0,
        "tle_line1": "1 30249U 99025XJ  25336.40659639  .00019083  00000+0  42130-2 0  9996",
        "tle_line2": "2 30249  98.9591 140.0424 0026322  75.0090 315.5213 14.57132403974136"
      },
      "geometry": {
        "type": "Point",
        "coordinates": [
          137.32747293322436,
          19.235698879947392
        ]
      }
    }
  ]
}